start=new Date('2022-07-20T00:00:00.000Z').valueOf();
sats=[{"ECCENTRICITY":"0.00014850","FILE":"3517796","LAUNCH_DATE":"2021-12-18","MEAN_MOTION_DDOT":"0.0000000000000","GP_ID":"208472368","ELEMENT_SET_NO":"999","MEAN_MOTION":"15.08840430","OBJECT_NAME":"STARLINK-3266","TLE_LINE2":"2 50195  53.2189  84.1431 0001485  75.4530 284.6626 15.08840430 36133","MEAN_ANOMALY":"284.6626","CENTER_NAME":"EARTH","CLASSIFICATION_TYPE":"U","TLE_LINE1":"1 50195U 21125AR  22200.93147504  .00001218  00000-0  94604-4 0  9999","SITE":"AFWTR","OBJECT_ID":"2021-125AR","ARG_OF_PERICENTER":"75.4530","REV_AT_EPOCH":"3613","INCLINATION":"53.2189","APOAPSIS":"540.771","PERIAPSIS":"538.717","BSTAR":"0.00009460400000","RA_OF_ASC_NODE":"84.1431","MEAN_ELEMENT_THEORY":"SGP4","EPOCH":"2022-07-19T22:21:19.443456","MEAN_MOTION_DOT":"0.00001218","RCS_SIZE":"LARGE","EPHEMERIS_TYPE":"0","TIME_SYSTEM":"UTC","OBJECT_TYPE":"PAYLOAD","REF_FRAME":"TEME","DECAY_DATE":null,"SEMIMAJOR_AXIS":"6917.879","PERIOD":"95.438","COUNTRY_CODE":"US","NORAD_CAT_ID":"50195"},{"ECCENTRICITY":"0.00023960","FILE":"3517796","LAUNCH_DATE":"2021-12-18","MEAN_MOTION_DDOT":"0.0000000000000","ELEMENT_SET_NO":"999","GP_ID":"208472618","MEAN_MOTION":"15.08840835","OBJECT_NAME":"STARLINK-3263","MEAN_ANOMALY":"296.5016","CENTER_NAME":"EARTH","CLASSIFICATION_TYPE":"U","TLE_LINE2":"2 50196  53.2190  84.2311 0002396  63.6222 296.5016 15.08840835 36137","ARG_OF_PERICENTER":"63.6222","TLE_LINE1":"1 50196U 21125AS  22200.91307191  .00002693  00000-0  18726-3 0  9996","OBJECT_ID":"2021-125AS","SITE":"AFWTR","APOAPSIS":"541.400","INCLINATION":"53.2190","REV_AT_EPOCH":"3613","PERIAPSIS":"538.085","BSTAR":"0.00018726000000","RA_OF_ASC_NODE":"84.2311","EPOCH":"2022-07-19T21:54:49.413024","MEAN_ELEMENT_THEORY":"SGP4","RCS_SIZE":"LARGE","MEAN_MOTION_DOT":"0.00002693","TIME_SYSTEM":"UTC","EPHEMERIS_TYPE":"0","OBJECT_TYPE":"PAYLOAD","DECAY_DATE":null,"REF_FRAME":"TEME","PERIOD":"95.438","SEMIMAJOR_AXIS":"6917.878","NORAD_CAT_ID":"50196","COUNTRY_CODE":"US"},{"MEAN_MOTION_DOT":"0.00001034","RCS_SIZE":"LARGE","PERIAPSIS":"538.465","RA_OF_ASC_NODE":"84.2143","BSTAR":"0.00008302700000","EPOCH":"2022-07-19T22:00:07.832448","MEAN_ELEMENT_THEORY":"SGP4","PERIOD":"95.437","SEMIMAJOR_AXIS":"6917.871","NORAD_CAT_ID":"50197","COUNTRY_CODE":"US","TIME_SYSTEM":"UTC","EPHEMERIS_TYPE":"0","OBJECT_TYPE":"PAYLOAD","DECAY_DATE":null,"REF_FRAME":"TEME","FILE":"3517796","LAUNCH_DATE":"2021-12-18","MEAN_MOTION_DDOT":"0.0000000000000","ECCENTRICITY":"0.00018370","ARG_OF_PERICENTER":"63.7122","SITE":"AFWTR","TLE_LINE1":"1 50197U 21125AT  22200.91675732  .00001034  00000-0  83027-4 0  9991","OBJECT_ID":"2021-125AT","INCLINATION":"53.2191","APOAPSIS":"541.006","REV_AT_EPOCH":"3618","ELEMENT_SET_NO":"999","GP_ID":"208472869","MEAN_MOTION":"15.08843207","OBJECT_NAME":"STARLINK-3267","CENTER_NAME":"EARTH","MEAN_ANOMALY":"296.4059","CLASSIFICATION_TYPE":"U","TLE_LINE2":"2 50197  53.2191  84.2143 0001837  63.7122 296.4059 15.08843207 36188"},{"ECCENTRICITY":"0.00017910","MEAN_MOTION_DDOT":"0.0000000000000","FILE":"3517796","LAUNCH_DATE":"2021-12-18","TLE_LINE2":"2 50198  53.2187  84.2935 0001791  64.0159 296.1017 15.08846406 36136","CENTER_NAME":"EARTH","MEAN_ANOMALY":"296.1017","CLASSIFICATION_TYPE":"U","GP_ID":"208473120","MEAN_MOTION":"15.08846406","ELEMENT_SET_NO":"999","OBJECT_NAME":"STARLINK-3264","OBJECT_ID":"2021-125AU","TLE_LINE1":"1 50198U 21125AU  22200.90202912  .00002338  00000-0  16489-3 0  9992","SITE":"AFWTR","ARG_OF_PERICENTER":"64.0159","REV_AT_EPOCH":"3613","INCLINATION":"53.2187","APOAPSIS":"540.965","BSTAR":"0.00016489000000","RA_OF_ASC_NODE":"84.2935","MEAN_ELEMENT_THEORY":"SGP4","EPOCH":"2022-07-19T21:38:55.315968","PERIAPSIS":"538.487","MEAN_MOTION_DOT":"0.00002338","RCS_SIZE":"LARGE","OBJECT_TYPE":"PAYLOAD","REF_FRAME":"TEME","DECAY_DATE":null,"EPHEMERIS_TYPE":"0","TIME_SYSTEM":"UTC","SEMIMAJOR_AXIS":"6917.861","PERIOD":"95.437","COUNTRY_CODE":"US","NORAD_CAT_ID":"50198"},{"OBJECT_ID":"2021-125AV","TLE_LINE1":"1 50199U 21125AV  22200.94987373 -.00000111  00000-0  11140-4 0  9996","SITE":"AFWTR","ARG_OF_PERICENTER":"58.4265","REV_AT_EPOCH":"3613","APOAPSIS":"541.364","INCLINATION":"53.2180","MEAN_MOTION":"15.08844935","GP_ID":"208471868","ELEMENT_SET_NO":"999","OBJECT_NAME":"STARLINK-3270","TLE_LINE2":"2 50199  53.2180  84.0585 0002362  58.4265 301.6957 15.08844935 36139","MEAN_ANOMALY":"301.6957","CLASSIFICATION_TYPE":"U","CENTER_NAME":"EARTH","FILE":"3517796","LAUNCH_DATE":"2021-12-18","MEAN_MOTION_DDOT":"0.0000000000000","ECCENTRICITY":"0.00023620","SEMIMAJOR_AXIS":"6917.865","PERIOD":"95.437","COUNTRY_CODE":"US","NORAD_CAT_ID":"50199","EPHEMERIS_TYPE":"0","TIME_SYSTEM":"UTC","OBJECT_TYPE":"PAYLOAD","REF_FRAME":"TEME","DECAY_DATE":null,"MEAN_MOTION_DOT":"-0.00000111","RCS_SIZE":"LARGE","PERIAPSIS":"538.096","BSTAR":"0.00001114000000","RA_OF_ASC_NODE":"84.0585","MEAN_ELEMENT_THEORY":"SGP4","EPOCH":"2022-07-19T22:47:49.090272"},{"TLE_LINE1":"1 50200U 21125AW  22200.90938912  .00003221  00000-0  22034-3 0  9997","OBJECT_ID":"2021-125AW","SITE":"AFWTR","ARG_OF_PERICENTER":"53.7227","REV_AT_EPOCH":"3614","APOAPSIS":"541.088","INCLINATION":"53.2183","GP_ID":"208472118","ELEMENT_SET_NO":"999","MEAN_MOTION":"15.08845518","OBJECT_NAME":"STARLINK-3235","TLE_LINE2":"2 50200  53.2183  84.2442 0001965  53.7227 306.3947 15.08845518 36143","CENTER_NAME":"EARTH","MEAN_ANOMALY":"306.3947","CLASSIFICATION_TYPE":"U","FILE":"3517796","LAUNCH_DATE":"2021-12-18","MEAN_MOTION_DDOT":"0.0000000000000","ECCENTRICITY":"0.00019650","SEMIMAJOR_AXIS":"6917.864","PERIOD":"95.437","COUNTRY_CODE":"US","NORAD_CAT_ID":"50200","EPHEMERIS_TYPE":"0","TIME_SYSTEM":"UTC","OBJECT_TYPE":"PAYLOAD","REF_FRAME":"TEME","DECAY_DATE":null,"RCS_SIZE":"LARGE","MEAN_MOTION_DOT":"0.00003221","PERIAPSIS":"538.369","RA_OF_ASC_NODE":"84.2442","BSTAR":"0.00022034000000","MEAN_ELEMENT_THEORY":"SGP4","EPOCH":"2022-07-19T21:49:31.219968"},{"PERIOD":"95.437","SEMIMAJOR_AXIS":"6917.876","NORAD_CAT_ID":"50201","COUNTRY_CODE":"US","OBJECT_TYPE":"PAYLOAD","DECAY_DATE":null,"REF_FRAME":"TEME","TIME_SYSTEM":"UTC","EPHEMERIS_TYPE":"0","MEAN_MOTION_DOT":"0.00001585","RCS_SIZE":"LARGE","BSTAR":"0.00011766000000","RA_OF_ASC_NODE":"84.3124","EPOCH":"2022-07-19T21:33:37.659456","MEAN_ELEMENT_THEORY":"SGP4","PERIAPSIS":"538.341","ARG_OF_PERICENTER":"52.1526","OBJECT_ID":"2021-125AX","TLE_LINE1":"1 50201U 21125AX  22200.89835254  .00001585  00000-0  11766-3 0  9992","SITE":"AFWTR","INCLINATION":"53.2195","APOAPSIS":"541.141","REV_AT_EPOCH":"3613","CENTER_NAME":"EARTH","MEAN_ANOMALY":"307.9649","CLASSIFICATION_TYPE":"U","TLE_LINE2":"2 50201  53.2195  84.3124 0002024  52.1526 307.9649 15.08841439 36130","GP_ID":"208473370","MEAN_MOTION":"15.08841439","ELEMENT_SET_NO":"999","OBJECT_NAME":"STARLINK-3255","MEAN_MOTION_DDOT":"0.0000000000000","FILE":"3517796","LAUNCH_DATE":"2021-12-18","ECCENTRICITY":"0.00020240"},{"EPHEMERIS_TYPE":"0","TIME_SYSTEM":"UTC","OBJECT_TYPE":"PAYLOAD","REF_FRAME":"TEME","DECAY_DATE":null,"SEMIMAJOR_AXIS":"6917.848","PERIOD":"95.437","COUNTRY_CODE":"US","NORAD_CAT_ID":"50202","PERIAPSIS":"538.341","RA_OF_ASC_NODE":"84.0781","BSTAR":"0.00011976000000","MEAN_ELEMENT_THEORY":"SGP4","EPOCH":"2022-07-19T22:42:30.345120","MEAN_MOTION_DOT":"0.00001619","RCS_SIZE":"LARGE","MEAN_MOTION":"15.08850632","GP_ID":"208473621","ELEMENT_SET_NO":"999","OBJECT_NAME":"STARLINK-3256","TLE_LINE2":"2 50202  53.2172  84.0781 0001983  57.5732 302.5452 15.08850632 36131","CLASSIFICATION_TYPE":"U","CENTER_NAME":"EARTH","MEAN_ANOMALY":"302.5452","OBJECT_ID":"2021-125AY","TLE_LINE1":"1 50202U 21125AY  22200.94618455  .00001619  00000-0  11976-3 0  9992","SITE":"AFWTR","ARG_OF_PERICENTER":"57.5732","REV_AT_EPOCH":"3613","APOAPSIS":"541.085","INCLINATION":"53.2172","ECCENTRICITY":"0.00019830","FILE":"3517796","LAUNCH_DATE":"2021-12-18","MEAN_MOTION_DDOT":"0.0000000000000"},{"BSTAR":"0.00037349000000","RA_OF_ASC_NODE":"84.2742","EPOCH":"2022-07-19T21:44:13.764768","MEAN_ELEMENT_THEORY":"SGP4","PERIAPSIS":"538.530","MEAN_MOTION_DOT":"0.00005663","RCS_SIZE":"LARGE","OBJECT_TYPE":"PAYLOAD","DECAY_DATE":null,"REF_FRAME":"TEME","TIME_SYSTEM":"UTC","EPHEMERIS_TYPE":"0","PERIOD":"95.437","SEMIMAJOR_AXIS":"6917.845","NORAD_CAT_ID":"50203","COUNTRY_CODE":"US","ECCENTRICITY":"0.00017060","MEAN_MOTION_DDOT":"0.0000000000000","FILE":"3517796","LAUNCH_DATE":"2021-12-18","CENTER_NAME":"EARTH","MEAN_ANOMALY":"292.7752","CLASSIFICATION_TYPE":"U","TLE_LINE2":"2 50203  53.2183  84.2742 0001706  67.3420 292.7752 15.08851471 36190","MEAN_MOTION":"15.08851471","GP_ID":"208472369","ELEMENT_SET_NO":"999","OBJECT_NAME":"STARLINK-3257","ARG_OF_PERICENTER":"67.3420","OBJECT_ID":"2021-125AZ","TLE_LINE1":"1 50203U 21125AZ  22200.90571487  .00005663  00000-0  37349-3 0  9997","SITE":"AFWTR","APOAPSIS":"540.891","INCLINATION":"53.2183","REV_AT_EPOCH":"3619"},{"INCLINATION":"53.2201","APOAPSIS":"541.135","REV_AT_EPOCH":"3619","ARG_OF_PERICENTER":"57.1169","TLE_LINE1":"1 50204U 21125BA  22200.95355185  .00001273  00000-0  98046-4 0  9993","OBJECT_ID":"2021-125BA","SITE":"AFWTR","MEAN_ANOMALY":"303.0017","CLASSIFICATION_TYPE":"U","CENTER_NAME":"EARTH","TLE_LINE2":"2 50204  53.2201  84.0556 0002022  57.1169 303.0017 15.08843167 36195","OBJECT_NAME":"STARLINK-3254","GP_ID":"208472619","MEAN_MOTION":"15.08843167","ELEMENT_SET_NO":"999","MEAN_MOTION_DDOT":"0.0000000000000","LAUNCH_DATE":"2021-12-18","FILE":"3517796","ECCENTRICITY":"0.00020220","NORAD_CAT_ID":"50204","COUNTRY_CODE":"US","PERIOD":"95.437","SEMIMAJOR_AXIS":"6917.871","DECAY_DATE":null,"REF_FRAME":"TEME","OBJECT_TYPE":"PAYLOAD","TIME_SYSTEM":"UTC","EPHEMERIS_TYPE":"0","MEAN_MOTION_DOT":"0.00001273","RCS_SIZE":"LARGE","EPOCH":"2022-07-19T22:53:06.879840","MEAN_ELEMENT_THEORY":"SGP4","BSTAR":"0.00009804600000","RA_OF_ASC_NODE":"84.0556","PERIAPSIS":"538.337"}];
